     2.11           G: GLONASS NAV DATA                     RINEX VERSION / TYPE
LEICA GEO OFFICE 8.4                    27-9-20 23:31       PGM / RUN BY / DATE
                                                            END OF HEADER
 8 20  9 27  6 15  2.0-5.479436367750D-05 0.000000000000D+00 3.240000000000D+04
   -1.321829687500D+04-2.191165924072D+00 9.313225746155D-10 0.000000000000D+00
    1.739936523438D+03-2.007593154907D+00 0.000000000000D+00 6.000000000000D+00
    2.179045019531D+04-1.173095703125D+00-1.862645149231D-09 0.000000000000D+00
 8 20  9 27  6 45  2.0-5.479436367750D-05 0.000000000000D+00 3.420000000000D+04
   -1.715567871094D+04-2.136515617371D+00 0.000000000000D+00 0.000000000000D+00
   -1.373351074219D+03-1.436606407166D+00-9.313225746155D-10 6.000000000000D+00
    1.886721679688D+04-2.054084777832D+00-2.793967723846D-09 0.000000000000D+00
 8 20  9 27  7 15  2.0-5.479436367750D-05 0.000000000000D+00 3.600000000000D+04
   -2.073774658203D+04-1.796739578247D+00-9.313225746155D-10 0.000000000000D+00
   -3.410998535156D+03-8.309259414673D-01-1.862645149231D-09 6.000000000000D+00
    1.449038720703D+04-2.777729988098D+00-2.793967723846D-09 0.000000000000D+00
 8 20  9 27  7 45  2.0-5.479436367750D-05 0.000000000000D+00 3.780000000000D+04
   -2.346705615234D+04-1.196928024292D+00-1.862645149231D-09 0.000000000000D+00
   -4.409188964844D+03-2.988595962524D-01-1.862645149231D-09 6.000000000000D+00
    8.995782226563D+03-3.287929534912D+00-2.793967723846D-09 0.000000000000D+00
10 20  9 27  5 45  2.0-6.251223385334D-05 0.000000000000D+00 3.147000000000D+04
   -2.427254101563D+04 1.068675994873D+00 9.313225746155D-10 0.000000000000D+00
    4.372817382813D+02-3.524875640869D-02-1.862645149231D-09-7.000000000000D+00
    7.723136230469D+03 3.366526603699D+00-1.862645149231D-09 0.000000000000D+00
10 20  9 27  6 15  2.0-6.251316517591D-05 0.000000000000D+00 3.240000000000D+04
   -2.166870361328D+04 1.792551040649D+00 0.000000000000D+00 0.000000000000D+00
    4.948681640625D+01-4.252157211304D-01-1.862645149231D-09-7.000000000000D+00
    1.340459375000D+04 2.905107498169D+00-2.793967723846D-09 0.000000000000D+00
10 20  9 27  6 45  2.0-6.251502782106D-05 0.000000000000D+00 3.420000000000D+04
   -1.795846630859D+04 2.285838127136D+00 0.000000000000D+00 0.000000000000D+00
   -1.174926269531D+03-9.499893188477D-01-9.313225746155D-10-7.000000000000D+00
    1.804621093750D+04 2.218757629395D+00-2.793967723846D-09 0.000000000000D+00
10 20  9 27  7 15  2.0-6.251595914364D-05 0.000000000000D+00 3.600000000000D+04
   -1.361038330078D+04 2.496162414551D+00 0.000000000000D+00 0.000000000000D+00
   -3.391780761719D+03-1.509938240051D+00-9.313225746155D-10-7.000000000000D+00
    2.128912744141D+04 1.361192703247D+00-2.793967723846D-09 0.000000000000D+00
10 20  9 27  7 45  2.0-6.251689046621D-05 0.000000000000D+00 3.780000000000D+04
   -9.147376464844D+03 2.416209220886D+00 0.000000000000D+00 0.000000000000D+00
   -6.565935058594D+03-1.995570182800D+00 0.000000000000D+00-7.000000000000D+00
    2.288371630859D+04 3.992433547974D-01-2.793967723846D-09 0.000000000000D+00
10 20  9 27  8 15  2.0-6.251689046621D-05 0.000000000000D+00 3.960000000000D+04
   -5.064065917969D+03 2.084170341492D+00 0.000000000000D+00 0.000000000000D+00
   -1.047025781250D+04-2.306124687195D+00 0.000000000000D+00-7.000000000000D+00
    2.270850585938D+04-5.924692153931D-01-1.862645149231D-09 0.000000000000D+00
11 20  9 27  6 45  2.0-3.909878432751D-05-9.094947017729D-13 3.489000000000D+04
   -2.345177929688D+04 1.980533599854D-01 0.000000000000D+00 0.000000000000D+00
    1.003809375000D+04 5.779361724854D-02-1.862645149231D-09 0.000000000000D+00
    1.166858886719D+03 3.546471595764D+00-9.313225746155D-10 0.000000000000D+00
11 20  9 27  7 15  2.0-3.910064697266D-05 0.000000000000D+00 3.600000000000D+04
   -2.241599755859D+04 9.256582260132D-01 0.000000000000D+00 0.000000000000D+00
    9.733032226563D+03-4.269418716431D-01-1.862645149231D-09 0.000000000000D+00
    7.423348632813D+03 3.360213279724D+00-1.862645149231D-09 0.000000000000D+00
11 20  9 27  7 45  2.0-3.910250961781D-05 0.000000000000D+00 3.780000000000D+04
   -2.024168750000D+04 1.450643539429D+00 0.000000000000D+00 0.000000000000D+00
    8.416879882813D+03-1.051112174988D+00-1.862645149231D-09 0.000000000000D+00
    1.310797265625D+04 2.915196418762D+00-2.793967723846D-09 0.000000000000D+00
11 20  9 27  8 15  2.0-3.910437226295D-05 0.000000000000D+00 3.960000000000D+04
   -1.734925976563D+04 1.717790603638D+00 0.000000000000D+00 0.000000000000D+00
    5.924122558594D+03-1.716403007507D+00-9.313225746155D-10 0.000000000000D+00
    1.778302685547D+04 2.245706558228D+00-2.793967723846D-09 0.000000000000D+00
11 20  9 27  8 45  2.0-3.910530358553D-05 0.000000000000D+00 4.140000000000D+04
   -1.422059863281D+04 1.714846611023D+00 0.000000000000D+00 0.000000000000D+00
    2.279138183594D+03-2.313070297241D+00-9.313225746155D-10 0.000000000000D+00
    2.108838378906D+04 1.403106689453D+00-2.793967723846D-09 0.000000000000D+00
11 20  9 27  9 15  2.0-3.910716623068D-05-9.094947017729D-13 4.320000000000D+04
   -1.131943408203D+04 1.473838806152D+00 0.000000000000D+00 0.000000000000D+00
   -2.299388671875D+03-2.737976074219D+00 0.000000000000D+00 0.000000000000D+00
    2.276891748047D+04 4.519672393799D-01-2.793967723846D-09 0.000000000000D+00
11 20  9 27  9 45  2.0-3.910902887583D-05-9.094947017729D-13 4.500000000000D+04
   -9.015916015625D+03 1.065160751343D+00 0.000000000000D+00 0.000000000000D+00
   -7.426088378906D+03-2.911663055420D+00 0.000000000000D+00 0.000000000000D+00
    2.269406054688D+04-5.347490310669D-01-1.862645149231D-09 0.000000000000D+00
11 20  9 27 10 15  2.0-3.911089152098D-05-9.094947017729D-13 4.680000000000D+04
   -7.527719726563D+03 5.853710174561D-01 0.000000000000D+00 0.000000000000D+00
   -1.260426660156D+04-2.791681289673D+00 0.000000000000D+00 0.000000000000D+00
    2.086806542969D+04-1.481149673462D+00-1.862645149231D-09 0.000000000000D+00
12 20  9 27  1 45  2.0 1.670736819506D-04 3.637978807092D-12 1.620000000000D+04
    1.802026123047D+04 7.943086624146D-01-1.862645149231D-09 0.000000000000D+00
    1.628804931641D+04 7.325820922852D-01 0.000000000000D+00-1.000000000000D+00
    7.851751464844D+03-3.355482101440D+00 0.000000000000D+00 0.000000000000D+00
12 20  9 27  2 15  2.0 1.670792698860D-04 3.637978807092D-12 1.800000000000D+04
    1.900850000000D+04 2.670841217041D-01-1.862645149231D-09 0.000000000000D+00
    1.695410498047D+04 2.676868438721D-02 9.313225746155D-10-1.000000000000D+00
    1.586814941406D+03-3.560468673706D+00 9.313225746155D-10 0.000000000000D+00
12 20  9 27  7 45  2.0 1.671360805631D-04 2.728484105319D-12 3.846000000000D+04
   -1.859164013672D+04-2.367658615112D-01 0.000000000000D+00 0.000000000000D+00
    1.715756347656D+04 4.004163742065D-01-1.862645149231D-09-1.000000000000D+00
   -3.153047851563D+03 3.538009643555D+00-9.313225746155D-10 0.000000000000D+00
12 20  9 27  8 15  2.0 1.671416684985D-04 2.728484105319D-12 3.960000000000D+04
   -1.840260791016D+04 4.187240600586D-01 0.000000000000D+00 0.000000000000D+00
    1.735397021484D+04-2.119359970093D-01-1.862645149231D-09-1.000000000000D+00
    3.255052246094D+03 3.535808563232D+00-9.313225746155D-10 0.000000000000D+00
12 20  9 27  8 45  2.0 1.671472564340D-04 2.728484105319D-12 4.140000000000D+04
   -1.720823291016D+04 8.688163757324D-01 0.000000000000D+00 0.000000000000D+00
    1.631468945313D+04-9.565963745117D-01-1.862645149231D-09-1.000000000000D+00
    9.411372558594D+03 3.260170936584D+00-1.862645149231D-09 0.000000000000D+00
12 20  9 27  9 15  2.0 1.671528443694D-04 3.637978807092D-12 4.320000000000D+04
   -1.542793554688D+04 1.065313339233D+00 0.000000000000D+00 0.000000000000D+00
    1.389408251953D+04-1.727879524231D+00-9.313225746155D-10-1.000000000000D+00
    1.484035400391D+04 2.732993125916D+00-2.793967723846D-09 0.000000000000D+00
12 20  9 27  9 45  2.0 1.671584323049D-04 3.637978807092D-12 4.500000000000D+04
   -1.352838281250D+04 1.004523277283D+00 0.000000000000D+00 0.000000000000D+00
    1.014689648438D+04-2.411894798279D+00-9.313225746155D-10-1.000000000000D+00
    1.912361718750D+04 1.995469093323D+00-2.793967723846D-09 0.000000000000D+00
12 20  9 27 10 15  2.0 1.671649515629D-04 3.637978807092D-12 4.680000000000D+04
   -1.194238916016D+04 7.270889282227D-01 0.000000000000D+00 0.000000000000D+00
    5.326297851563D+03-2.905106544495D+00 0.000000000000D+00-1.000000000000D+00
    2.193189843750D+04 1.104759216309D+00-2.793967723846D-09 0.000000000000D+00
12 20  9 27 10 45  2.0 1.671714708209D-04 3.637978807092D-12 4.860000000000D+04
   -1.099485107422D+04 3.104648590088D-01 0.000000000000D+00 0.000000000000D+00
   -1.503764648438D+02-3.131146430969D+00 0.000000000000D+00-1.000000000000D+00
    2.304990283203D+04 1.295146942139D-01-2.793967723846D-09 0.000000000000D+00
12 20  9 27 11 15  2.0 1.671798527241D-04 3.637978807092D-12 5.040000000000D+04
   -1.084790673828D+04-1.446094512939D-01 0.000000000000D+00 0.000000000000D+00
   -5.762501464844D+03-3.053191184998D+00 0.000000000000D+00-1.000000000000D+00
    2.239236230469D+04-8.553581237793D-01-1.862645149231D-09 0.000000000000D+00
13 20  9 27  1 45  2.0-4.440546035767D-05 0.000000000000D+00 1.620000000000D+04
    1.462840673828D+04 1.868484497070D+00 0.000000000000D+00 0.000000000000D+00
    2.139519531250D+03 2.149078369141D+00 0.000000000000D+00-2.000000000000D+00
    2.077733349609D+04-1.536542892456D+00-9.313225746155D-10 0.000000000000D+00
13 20  9 27  2 15  2.0-4.441011697054D-05 0.000000000000D+00 1.800000000000D+04
    1.797501660156D+04 1.803954124451D+00-9.313225746155D-10 0.000000000000D+00
    5.464782226563D+03 1.529776573181D+00 9.313225746155D-10-2.000000000000D+00
    1.724345947266D+04-2.364468574524D+00-9.313225746155D-10 0.000000000000D+00
